{{Infobox Planet  
| name = 361 Bononia
| image = 
| caption = 
| discovery=yes | physical_characteristics = yes | bgcolour=#FFFFC0
| discovery_ref = 
| discoverer = [[奥古斯特·沙卢瓦|奥古斯特·沙卢瓦]]
| discovery_site = [[尼斯|尼斯]]
| discovered =  1893年3月11日
| mp_name = 361
| alt_names = 1893 P
| named_after = [[博洛尼亚|博洛尼亚]]
| mp_category=[[小行星带|外主带小行星]]（[[希尔达族|希尔达族]]）
| orbit_ref = <ref>[http://ssd.jpl.nasa.gov/sbdb.cgi?sstr=361 361 Bononia (1893 P)]</ref>
| epoch = 2011年8月27日
| semimajor= 3.963113355088297AU
| perihelion=3.115167216506529AU
| aphelion=4.811059493670066[[天文单位|AU]]
| eccentricity =0.2139595975707025	
| period =2881.729209078652[[日|地球日]]<br>7.89[[年|地球年]] 
| inclination=12.62807322808318[[角度|°]]
| asc_node=18.94654931902066°	
| arg_peri=67.99733058540428°
| mean_anomaly=104.7182036051488°
| avg_speed=14.98 km/s
 | dimensions=141.72千米
 | mass=
 | density=
 | surface_grav=
 | escape_velocity=
 | rotation=13.83[[小时|小时]]
 | spectral_type=[[D-型小行星|DP]]
 | magnitude=
 | abs_magnitude=8.22
 | albedo=0.0453	
 | single_temperature=
}}
'''小行星361'''（'''361 Bononia'''），是由[[法国|法国]][[天文学家|天文学家]][[奥古斯特·沙卢瓦|奥古斯特·沙卢瓦]]于1893年3月11日在法国[[尼斯|尼斯]]发现的[[小行星带|外主带]][[小行星|小行星]]。它是[[希尔达族|希尔达族]]小行星的成员。

小行星361以意大利城市[[博洛尼亚|博洛尼亚]]命名。

== 参考资料 ==
{{Reflist}}

{{Minor Planet Number|(360)[[小行星360|小行星360]]|(362)[[小行星362|小行星362]]}}

[[Category:小行星带天体|Category:小行星带天体]]
[[Category:1893年发现的小行星|Category:1893年发现的小行星]]
[[Category:以地名命名的小行星|Category:以地名命名的小行星]]